[{"OBJECT_NAME":"STARLINK-32412","OBJECT_ID":"2024-193V","EPOCH":"2026-03-09T08:49:06.450528","MEAN_MOTION":15.30208553,"ECCENTRICITY":0.00013908,"INCLINATION":53.1592,"RA_OF_ASC_NODE":92.7577,"ARG_OF_PERICENTER":103.1881,"MEAN_ANOMALY":256.9275,"EPHEMERIS_TYPE":0,"CLASSIFICATION_TYPE":"U","NORAD_CAT_ID":61680,"ELEMENT_SET_NO":999,"REV_AT_EPOCH":7647,"BSTAR":0.00015131734,"MEAN_MOTION_DOT":4.126e-5,"MEAN_MOTION_DDOT":0},{"OBJECT_NAME":"OBJECT BE","OBJECT_ID":"2024-199BE","EPOCH":"2026-03-09T22:35:11.240448","MEAN_MOTION":15.34583634,"ECCENTRICITY":0.00126202,"INCLINATION":97.3163,"RA_OF_ASC_NODE":298.7137,"ARG_OF_PERICENTER":307.7021,"MEAN_ANOMALY":52.3078,"EPHEMERIS_TYPE":0,"CLASSIFICATION_TYPE":"U","NORAD_CAT_ID":61787,"ELEMENT_SET_NO":999,"REV_AT_EPOCH":12186,"BSTAR":0.00035348262,"MEAN_MOTION_DOT":0.00011799,"MEAN_MOTION_DDOT":0}]
